{"type": "FeatureCollection", "features": [ {"type": "Feature", "properties": {"norad_id": 37550, "name": "IRIDIUM 33 DEB", "group": "iridium-33-debris", "lat": 67.23625266995303, "lon": 33.668138010960284, "alt_km": 661.0407642918508, "timestamp": "2025-12-10T05:46:14.211750+00:00", "meta": {"OBJECT_NAME": "IRIDIUM 33 DEB", "OBJECT_ID": "1997-051XK", "EPOCH": "2025-12-06T21:15:18.690336", "MEAN_MOTION": 14.67089693, "ECCENTRICITY": 0.00053572, "INCLINATION": 86.377, "RA_OF_ASC_NODE": 26.47, "ARG_OF_PERICENTER": 124.88, "MEAN_ANOMALY": 235.2918, "EPHEMERIS_TYPE": 0, "CLASSIFICATION_TYPE": "U", "NORAD_CAT_ID": 37550, "ELEMENT_SET_NO": 999, "REV_AT_EPOCH": 86247, "BSTAR": 0.0020360196, "MEAN_MOTION_DOT": 0.00011461, "MEAN_MOTION_DDOT": 0}, "tle": {"line1": "1 37550U 97051XK  25340.88563299  .00011461  00000+0  20360-2 0  9991", "line2": "2 37550  86.3770  26.4700 0005357 124.8800 235.2918 14.67089693862475"}}, "geometry": {"type": "Point", "coordinates": [33.668138010960284, 67.23625266995303]}}, {"type": "Feature", "properties": {"norad_id": 37562, "name": "IRIDIUM 33 DEB", "group": "iridium-33-debris", "lat": 12.144739924374054, "lon": 45.47257978685527, "alt_km": 710.1502792744632, "timestamp": "2025-12-10T05:46:14.211760+00:00", "meta": {"OBJECT_NAME": "IRIDIUM 33 DEB", "OBJECT_ID": "1997-051XX", "EPOCH": "2025-12-07T12:03:22.182048", "MEAN_MOTION": 14.56401675, "ECCENTRICITY": 0.00267128, "INCLINATION": 86.3743, "RA_OF_ASC_NODE": 45.8843, "ARG_OF_PERICENTER": 124.2165, "MEAN_ANOMALY": 301.4124, "EPHEMERIS_TYPE": 0, "CLASSIFICATION_TYPE": "U", "NORAD_CAT_ID": 37562, "ELEMENT_SET_NO": 999, "REV_AT_EPOCH": 86252, "BSTAR": 0.0018073618, "MEAN_MOTION_DOT": 8.081e-05, "MEAN_MOTION_DDOT": 0}, "tle": {"line1": "1 37562U 97051XX  25341.50234007  .00008081  00000+0  18074-2 0  9999", "line2": "2 37562  86.3743  45.8843 0026712 124.2165 301.4124 14.56401675862524"}}, "geometry": {"type": "Point", "coordinates": [45.47257978685527, 12.144739924374054]}}, {"type": "Feature", "properties": {"norad_id": 37565, "name": "IRIDIUM 33 DEB", "group": "iridium-33-debris", "lat": -17.950697294938173, "lon": -168.1480373451537, "alt_km": 728.94570959055, "timestamp": "2025-12-10T05:46:14.211770+00:00", "meta": {"OBJECT_NAME": "IRIDIUM 33 DEB", "OBJECT_ID": "1997-051YA", "EPOCH": "2025-12-09T09:00:32.620320", "MEAN_MOTION": 14.51496664, "ECCENTRICITY": 0.00152947, "INCLINATION": 86.3494, "RA_OF_ASC_NODE": 11.0435, "ARG_OF_PERICENTER": 94.02, "MEAN_ANOMALY": 266.2754, "EPHEMERIS_TYPE": 0, "CLASSIFICATION_TYPE": "U", "NORAD_CAT_ID": 37565, "ELEMENT_SET_NO": 999, "REV_AT_EPOCH": 65788, "BSTAR": 0.00087733557, "MEAN_MOTION_DOT": 3.53e-05, "MEAN_MOTION_DDOT": 0}, "tle": {"line1": "1 37565U 97051YA  25343.37537755  .00003530  00000+0  87734-3 0  9999", "line2": "2 37565  86.3494  11.0435 0015294  94.0200 266.2754 14.51496664657884"}}, "geometry": {"type": "Point", "coordinates": [-168.1480373451537, -17.950697294938173]}}, {"type": "Feature", "properties": {"norad_id": 38017, "name": "IRIDIUM 33 DEB", "group": "iridium-33-debris", "lat": -51.05044314465009, "lon": 162.77181346199865, "alt_km": 798.9333123085889, "timestamp": "2025-12-10T05:46:14.211780+00:00", "meta": {"OBJECT_NAME": "IRIDIUM 33 DEB", "OBJECT_ID": "1997-051YD", "EPOCH": "2025-12-09T11:46:33.974400", "MEAN_MOTION": 14.48798155, "ECCENTRICITY": 0.00922627, "INCLINATION": 86.3416, "RA_OF_ASC_NODE": 167.6374, "ARG_OF_PERICENTER": 113.885, "MEAN_ANOMALY": 247.2055, "EPHEMERIS_TYPE": 0, "CLASSIFICATION_TYPE": "U", "NORAD_CAT_ID": 38017, "ELEMENT_SET_NO": 999, "REV_AT_EPOCH": 61355, "BSTAR": 0.007075922, "MEAN_MOTION_DOT": 0.00028304, "MEAN_MOTION_DDOT": 0}, "tle": {"line1": "1 38017U 97051YD  25343.49067100  .00028304  00000+0  70759-2 0  9991", "line2": "2 38017  86.3416 167.6374 0092262 113.8850 247.2055 14.48798155613557"}}, "geometry": {"type": "Point", "coordinates": [162.77181346199865, -51.05044314465009]}}, {"type": "Feature", "properties": {"norad_id": 38022, "name": "IRIDIUM 33 DEB", "group": "iridium-33-debris", "lat": 19.173828618871475, "lon": -163.76224292795789, "alt_km": 761.8347584072808, "timestamp": "2025-12-10T05:46:14.211790+00:00", "meta": {"OBJECT_NAME": "IRIDIUM 33 DEB", "OBJECT_ID": "1997-051YJ", "EPOCH": "2025-12-07T08:42:47.311776", "MEAN_MOTION": 14.41201446, "ECCENTRICITY": 0.00469795, "INCLINATION": 86.2687, "RA_OF_ASC_NODE": 18.7976, "ARG_OF_PERICENTER": 67.6005, "MEAN_ANOMALY": 293.0162, "EPHEMERIS_TYPE": 0, "CLASSIFICATION_TYPE": "U", "NORAD_CAT_ID": 38022, "ELEMENT_SET_NO": 999, "REV_AT_EPOCH": 69116, "BSTAR": 0.0015997038, "MEAN_MOTION_DOT": 5.249e-05, "MEAN_MOTION_DDOT": 0}, "tle": {"line1": "1 38022U 97051YJ  25341.36304759  .00005249  00000+0  15997-2 0  9991", "line2": "2 38022  86.2687  18.7976 0046979  67.6005 293.0162 14.41201446691164"}}, "geometry": {"type": "Point", "coordinates": [-163.76224292795789, 19.173828618871475]}}, {"type": "Feature", "properties": {"norad_id": 38028, "name": "IRIDIUM 33 DEB", "group": "iridium-33-debris", "lat": -79.03124377957093, "lon": -159.28107993972318, "alt_km": 759.6491901122163, "timestamp": "2025-12-10T05:46:14.211800+00:00", "meta": {"OBJECT_NAME": "IRIDIUM 33 DEB", "OBJECT_ID": "1997-051YQ", "EPOCH": "2025-12-09T08:38:54.868992", "MEAN_MOTION": 14.46171938, "ECCENTRICITY": 0.00301795, "INCLINATION": 86.3256, "RA_OF_ASC_NODE": 1.7381, "ARG_OF_PERICENTER": 131.6061, "MEAN_ANOMALY": 228.7734, "EPHEMERIS_TYPE": 0, "CLASSIFICATION_TYPE": "U", "NORAD_CAT_ID": 38028, "ELEMENT_SET_NO": 999, "REV_AT_EPOCH": 65446, "BSTAR": 0.0004464513, "MEAN_MOTION_DOT": 1.624e-05, "MEAN_MOTION_DDOT": 0}, "tle": {"line1": "1 38028U 97051YQ  25343.36035728  .00001624  00000+0  44645-3 0  9992", "line2": "2 38028  86.3256   1.7381 0030179 131.6061 228.7734 14.46171938654463"}}, "geometry": {"type": "Point", "coordinates": [-159.28107993972318, -79.03124377957093]}}, {"type": "Feature", "properties": {"norad_id": 38228, "name": "IRIDIUM 33 DEB", "group": "iridium-33-debris", "lat": 3.356804479462209, "lon": 49.75055319244653, "alt_km": 847.9041785554073, "timestamp": "2025-12-10T05:46:14.211810+00:00", "meta": {"OBJECT_NAME": "IRIDIUM 33 DEB", "OBJECT_ID": "1997-051ZC", "EPOCH": "2025-12-08T11:59:08.255904", "MEAN_MOTION": 14.27257685, "ECCENTRICITY": 0.00637921, "INCLINATION": 86.2952, "RA_OF_ASC_NODE": 50.2726, "ARG_OF_PERICENTER": 203.1298, "MEAN_ANOMALY": 220.077, "EPHEMERIS_TYPE": 0, "CLASSIFICATION_TYPE": "U", "NORAD_CAT_ID": 38228, "ELEMENT_SET_NO": 999, "REV_AT_EPOCH": 84721, "BSTAR": 0.00059886698, "MEAN_MOTION_DOT": 1.514e-05, "MEAN_MOTION_DDOT": 0}, "tle": {"line1": "1 38228U 97051ZC  25342.49940111  .00001514  00000+0  59887-3 0  9990", "line2": "2 38228  86.2952  50.2726 0063792 203.1298 220.0770 14.27257685847218"}}, "geometry": {"type": "Point", "coordinates": [49.75055319244653, 3.356804479462209]}}, {"type": "Feature", "properties": {"norad_id": 38241, "name": "IRIDIUM 33 DEB", "group": "iridium-33-debris", "lat": 36.94503059174082, "lon": -5.525070087351529, "alt_km": 703.9990560764345, "timestamp": "2025-12-10T05:46:14.211820+00:00", "meta": {"OBJECT_NAME": "IRIDIUM 33 DEB", "OBJECT_ID": "1997-051ZR", "EPOCH": "2025-12-05T18:18:10.298016", "MEAN_MOTION": 14.54799988, "ECCENTRICITY": 0.00056722, "INCLINATION": 86.3224, "RA_OF_ASC_NODE": 353.6772, "ARG_OF_PERICENTER": 87.2865, "MEAN_ANOMALY": 272.8992, "EPHEMERIS_TYPE": 0, "CLASSIFICATION_TYPE": "U", "NORAD_CAT_ID": 38241, "ELEMENT_SET_NO": 999, "REV_AT_EPOCH": 60099, "BSTAR": 0.0014749391, "MEAN_MOTION_DOT": 6.345e-05, "MEAN_MOTION_DDOT": 0}, "tle": {"line1": "1 38241U 97051ZR  25339.76261919  .00006345  00000+0  14749-2 0  9997", "line2": "2 38241  86.3224 353.6772 0005672  87.2865 272.8992 14.54799988600991"}}, "geometry": {"type": "Point", "coordinates": [-5.525070087351529, 36.94503059174082]}}, {"type": "Feature", "properties": {"norad_id": 38474, "name": "IRIDIUM 33 DEB", "group": "iridium-33-debris", "lat": -28.161771625681155, "lon": -166.88694631704314, "alt_km": 737.0514146347305, "timestamp": "2025-12-10T05:46:14.211831+00:00", "meta": {"OBJECT_NAME": "IRIDIUM 33 DEB", "OBJECT_ID": "1997-051AAB", "EPOCH": "2025-12-08T08:07:09.463872", "MEAN_MOTION": 14.50663948, "ECCENTRICITY": 0.00281226, "INCLINATION": 86.3436, "RA_OF_ASC_NODE": 11.9798, "ARG_OF_PERICENTER": 101.673, "MEAN_ANOMALY": 258.7634, "EPHEMERIS_TYPE": 0, "CLASSIFICATION_TYPE": "U", "NORAD_CAT_ID": 38474, "ELEMENT_SET_NO": 999, "REV_AT_EPOCH": 65254, "BSTAR": 0.0008115799, "MEAN_MOTION_DOT": 3.222e-05, "MEAN_MOTION_DDOT": 0}, "tle": {"line1": "1 38474U 97051AAB 25342.33830398  .00003222  00000+0  81158-3 0  9995", "line2": "2 38474  86.3436  11.9798 0028122 101.6730 258.7634 14.50663948652549"}}, "geometry": {"type": "Point", "coordinates": [-166.88694631704314, -28.161771625681155]}}, {"type": "Feature", "properties": {"norad_id": 39777, "name": "IRIDIUM 33 DEB", "group": "iridium-33-debris", "lat": -23.194153704295207, "lon": -2.0104247427732314, "alt_km": 668.7156095719556, "timestamp": "2025-12-10T05:46:14.211840+00:00", "meta": {"OBJECT_NAME": "IRIDIUM 33 DEB", "OBJECT_ID": "1997-051AAJ", "EPOCH": "2025-12-09T12:20:58.659648", "MEAN_MOTION": 14.56304197, "ECCENTRICITY": 0.00597111, "INCLINATION": 85.9626, "RA_OF_ASC_NODE": 176.6076, "ARG_OF_PERICENTER": 197.4862, "MEAN_ANOMALY": 162.4291, "EPHEMERIS_TYPE": 0, "CLASSIFICATION_TYPE": "U", "NORAD_CAT_ID": 39777, "ELEMENT_SET_NO": 999, "REV_AT_EPOCH": 60138, "BSTAR": 0.0037430645, "MEAN_MOTION_DOT": 0.00017025, "MEAN_MOTION_DDOT": 0}, "tle": {"line1": "1 39777U 97051AAJ 25343.51456782  .00017025  00000+0  37431-2 0  9994", "line2": "2 39777  85.9626 176.6076 0059711 197.4862 162.4291 14.56304197601387"}}, "geometry": {"type": "Point", "coordinates": [-2.0104247427732314, -23.194153704295207]}}]}